NORAD_CAT_ID,OBJECT_NAME,OBJECT_TYPE,EPOCH,MEAN_MOTION,ECCENTRICITY,INCLINATION,RA_OF_ASC_NODE,ARG_OF_PERICENTER,MEAN_ANOMALY,BSTAR,MEAN_MOTION_DOT,MEAN_MOTION_DDOT,TLE_LINE0,TLE_LINE1,TLE_LINE2,SEMIMAJOR_AXIS,PERIOD,APOGEE,PERIGEE,DECAYED
52994.0,STARLINK-4256,PAYLOAD,2024-06-18 21:12:08,15.08846262,0.0001184,53.2159,36.9413,93.6487,266.464,-0.00016359,-2.891e-05,0.0,0 STARLINK-4256,1 52994U 22076J   24170.88342870 -.00002891  00000-0 -16359-3 0  9999,2 52994  53.2159  36.9413 0001184  93.6487 266.4640 15.08846262108383,6917.861,95.437,540.545,538.907,0.0
52994.0,STARLINK-4256,PAYLOAD,2024-06-19 14:41:22,15.08842979,0.0001839,53.2165,33.6707,85.8621,274.2581,0.00024348,3.589e-05,0.0,0 STARLINK-4256,1 52994U 22076J   24171.61207077  .00003589  00000-0  24348-3 0  9990,2 52994  53.2165  33.6707 0001839  85.8621 274.2581 15.08842979108023,6917.871,95.437,541.008,538.464,0.0
52994.0,STARLINK-4256,PAYLOAD,2024-06-19 21:02:55,15.08844543,0.0001454,53.2173,32.4832,77.4808,282.6347,0.00082105,0.00012805,0.0,0 STARLINK-4256,1 52994U 22076J   24171.87703000  .00012805  00000-0  82105-3 0  9991,2 52994  53.2173  32.4832 0001454  77.4808 282.6347 15.08844543108061,6917.867,95.437,540.737,538.726,0.0
52994.0,STARLINK-4256,PAYLOAD,2024-06-20 08:10:37,15.0885103,0.0001481,53.2168,30.4027,71.8178,288.2975,0.00096091,0.00015043,0.0,0 STARLINK-4256,1 52994U 22076J   24172.34070971  .00015043  00000-0  96091-3 0  9994,2 52994  53.2168  30.4027 0001481  71.8178 288.2975 15.08851030108133,6917.847,95.437,540.736,538.687,0.0
52994.0,STARLINK-4256,PAYLOAD,2024-06-20 20:53:42,15.08838941,0.0001591,53.2173,28.0161,126.1186,233.9954,0.0002148,3.132e-05,0.0,0 STARLINK-4256,1 52994U 22076J   24172.87062938  .00003132  00000-0  21480-3 0  9992,2 52994  53.2173  28.0161 0001591 126.1186 233.9954 15.08838941108686,6917.884,95.438,540.849,538.648,0.0
52994.0,STARLINK-4256,PAYLOAD,2024-06-21 20:44:29,15.088419,0.0001497,53.2182,23.5606,98.3327,261.7835,0.00018435,2.647e-05,0.0,0 STARLINK-4256,1 52994U 22076J   24173.86423288  .00002647  00000-0  18435-3 0  9997,2 52994  53.2182  23.5606 0001497  98.3327 261.7835 15.08841900108363,6917.875,95.437,540.775,538.704,0.0
52994.0,STARLINK-4256,PAYLOAD,2024-06-22 14:13:44,15.08840512,0.0001371,53.2172,20.2882,97.279,262.8358,0.00017373,2.478e-05,0.0,0 STARLINK-4256,1 52994U 22076J   24174.59287417  .00002478  00000-0  17373-3 0  9992,2 52994  53.2172  20.2882 0001371  97.2790 262.8358 15.08840512108477,6917.879,95.438,540.692,538.795,0.0
52994.0,STARLINK-4256,PAYLOAD,2024-06-22 20:35:16,15.08838241,0.0001339,53.2172,19.0973,99.5192,260.5952,0.00010553,1.392e-05,0.0,0 STARLINK-4256,1 52994U 22076J   24174.85783508  .00001392  00000-0  10553-3 0  9990,2 52994  53.2172  19.0973 0001339  99.5192 260.5952 15.08838241108986,6917.886,95.438,540.677,538.824,0.0
52994.0,STARLINK-4256,PAYLOAD,2024-06-23 18:50:40,15.08840856,0.0001367,53.2171,14.9344,104.3483,255.7661,9.7435e-05,1.263e-05,0.0,0 STARLINK-4256,1 52994U 22076J   24175.78519376  .00001263  00000-0  97435-4 0  9995,2 52994  53.2171  14.9344 0001367 104.3483 255.7661 15.08840856108652,6917.878,95.438,540.688,538.797,0.0
52994.0,STARLINK-4256,PAYLOAD,2024-06-24 20:16:50,15.08839453,0.0001326,53.217,10.1767,103.6732,256.4408,7.7614e-05,9.48e-06,0.0,0 STARLINK-4256,1 52994U 22076J   24176.84503470  .00000948  00000-0  77614-4 0  9997,2 52994  53.2170  10.1767 0001326 103.6732 256.4408 15.08839453109280,6917.882,95.438,540.664,538.83,0.0
52994.0,STARLINK-4256,PAYLOAD,2024-06-25 20:07:37,15.08843751,0.0001282,53.2172,5.7177,87.8224,272.2915,0.00011007,1.464e-05,0.0,0 STARLINK-4256,1 52994U 22076J   24177.83863383  .00001464  00000-0  11007-3 0  9996,2 52994  53.2172   5.7177 0001282  87.8224 272.2915 15.08843751108966,6917.869,95.437,540.621,538.847,0.0
52994.0,STARLINK-4256,PAYLOAD,2024-06-27 05:30:43,15.08843981,0.0001417,53.2174,359.4755,77.3422,282.7728,0.00012115,1.641e-05,0.0,0 STARLINK-4256,1 52994U 22076J   24179.22967518  .00001641  00000-0  12115-3 0  9994,2 52994  53.2174 359.4755 0001417  77.3422 282.7728 15.08843981109642,6917.868,95.437,540.713,538.753,0.0
52994.0,STARLINK-4256,PAYLOAD,2024-06-27 18:13:49,15.08831995,0.0001357,53.2182,357.094,93.6447,266.4701,-8.0322e-05,-1.566e-05,0.0,0 STARLINK-4256,1 52994U 22076J   24179.75960181 -.00001566  00000-0 -80322-4 0  9995,2 52994  53.2182 357.0940 0001357  93.6447 266.4701 15.08831995109723,6917.905,95.438,540.709,538.831,0.0
52994.0,STARLINK-4256,PAYLOAD,2024-06-28 05:21:30,15.08845927,0.0001483,53.2183,355.0128,93.4504,266.6658,0.00011055,1.472e-05,0.0,0 STARLINK-4256,1 52994U 22076J   24180.22327486  .00001472  00000-0  11055-3 0  9994,2 52994  53.2183 355.0128 0001483  93.4504 266.6658 15.08845927109792,6917.862,95.437,540.753,538.701,0.0
52994.0,STARLINK-4256,PAYLOAD,2024-06-28 14:53:49,15.08825151,0.0001768,53.2178,353.2284,96.4245,263.6948,0.00039759,6.043e-05,0.0,0 STARLINK-4256,1 52994U 22076J   24180.62071186  .00006043  00000-0  39759-3 0  9991,2 52994  53.2178 353.2284 0001768  96.4245 263.6948 15.08825151109381,6917.926,95.438,541.014,538.568,0.0
52994.0,STARLINK-4256,PAYLOAD,2024-06-28 18:04:35,15.08845909,0.0001659,53.2177,352.6325,102.5112,257.6066,0.00036872,5.586e-05,0.0,0 STARLINK-4256,1 52994U 22076J   24180.75319438  .00005586  00000-0  36872-3 0  9994,2 52994  53.2177 352.6325 0001659 102.5112 257.6066 15.08845909109400,6917.862,95.437,540.875,538.58,0.0
52994.0,STARLINK-4256,PAYLOAD,2024-06-29 11:33:50,15.08844814,0.00017,53.2173,349.3641,78.756,281.3624,0.00025035,3.699e-05,0.0,0 STARLINK-4256,1 52994U 22076J   24181.48183536  .00003699  00000-0  25035-3 0  9995,2 52994  53.2173 349.3641 0001700  78.7560 281.3624 15.08844814109989,6917.866,95.437,540.907,538.555,0.0
52994.0,STARLINK-4256,PAYLOAD,2024-06-29 14:44:37,15.08838567,7.89e-05,53.2173,348.7607,103.2613,256.8467,0.0001094,1.454e-05,0.0,0 STARLINK-4256,1 52994U 22076J   24181.61431798  .00001454  00000-0  10940-3 0  9992,2 52994  53.2173 348.7607 0000789 103.2613 256.8467 15.08838567109534,6917.885,95.438,540.296,539.204,0.0
52994.0,STARLINK-4256,PAYLOAD,2024-06-29 17:55:23,15.08835428,0.0001359,53.2171,348.1714,78.6344,281.4801,6.3705e-05,7.26e-06,0.0,0 STARLINK-4256,1 52994U 22076J   24181.74680083  .00000726  00000-0  63705-4 0  9998,2 52994  53.2171 348.1714 0001359  78.6344 281.4801 15.08835428110020,6917.894,95.438,540.7,538.819,0.0
52994.0,STARLINK-4256,PAYLOAD,2024-06-30 14:35:24,15.08834828,0.0001359,53.2174,344.2996,96.8236,263.291,-7.5483e-05,-1.489e-05,0.0,0 STARLINK-4256,1 52994U 22076J   24182.60792633 -.00001489  00000-0 -75483-4 0  9994,2 52994  53.2174 344.2996 0001359  96.8236 263.2910 15.08834828109686,6917.896,95.438,540.701,538.821,0.0
52994.0,STARLINK-4256,PAYLOAD,2024-06-30 17:46:10,15.08839609,0.0001283,53.217,343.7042,57.9434,302.1682,-8.0874e-05,-1.575e-05,0.0,0 STARLINK-4256,1 52994U 22076J   24182.74040424 -.00001575  00000-0 -80874-4 0  9999,2 52994  53.2170 343.7042 0001283  57.9434 302.1682 15.08839609109706,6917.882,95.438,540.634,538.859,0.0
52994.0,STARLINK-4256,PAYLOAD,2024-07-01 03:18:28,15.08849356,0.0001295,53.2188,341.932,91.0603,269.0538,-1.5874e-06,-3.13e-06,0.0,0 STARLINK-4256,1 52994U 22076J   24183.13783479 -.00000313  00000-0 -15874-5 0  9995,2 52994  53.2188 341.9320 0001295  91.0603 269.0538 15.08849356110235,6917.852,95.437,540.613,538.821,0.0
52994.0,STARLINK-4256,PAYLOAD,2024-07-01 11:15:25,15.08831171,0.000211,53.2175,340.4389,69.0963,291.0255,0.00011341,1.517e-05,0.0,0 STARLINK-4256,1 52994U 22076J   24183.46904587  .00001517  00000-0  11341-3 0  9994,2 52994  53.2175 340.4389 0002110  69.0963 291.0255 15.08831171110283,6917.907,95.438,541.232,538.313,0.0
52994.0,STARLINK-4256,PAYLOAD,2024-07-01 14:26:12,15.08822563,0.0001508,53.2174,339.8456,75.213,284.9029,5.3205e-05,5.59e-06,0.0,0 STARLINK-4256,1 52994U 22076J   24183.60153278  .00000559  00000-0  53205-4 0  9994,2 52994  53.2174 339.8456 0001508  75.2130 284.9029 15.08822563109838,6917.934,95.439,540.842,538.755,0.0
52994.0,STARLINK-4256,PAYLOAD,2024-07-01 17:36:58,15.08825525,0.0001402,53.2183,339.2581,102.7421,257.3728,0.00011836,1.596e-05,0.0,0 STARLINK-4256,1 52994U 22076J   24183.73400990  .00001596  00000-0  11836-3 0  9999,2 52994  53.2183 339.2581 0001402 102.7421 257.3728 15.08825525109856,6917.925,95.438,540.76,538.82,0.0
52994.0,STARLINK-4256,PAYLOAD,2024-07-02 03:09:16,15.08839121,0.0001195,53.2177,337.468,75.0122,285.1002,0.00014917,2.087e-05,0.0,0 STARLINK-4256,1 52994U 22076J   24184.13144229  .00002087  00000-0  14917-3 0  9993,2 52994  53.2177 337.4680 0001195  75.0122 285.1002 15.08839121110389,6917.883,95.438,540.575,538.921,0.0
52994.0,STARLINK-4256,PAYLOAD,2024-07-02 14:16:59,15.08823259,0.0001007,53.2172,335.3851,86.9987,273.112,1.3662e-05,-7e-07,0.0,0 STARLINK-4256,1 52994U 22076J   24184.59513846 -.00000070  00000-0  13662-4 0  9996,2 52994  53.2172 335.3851 0001007  86.9987 273.1120 15.08823259109980,6917.932,95.439,540.493,539.1,0.0
52994.0,STARLINK-4256,PAYLOAD,2024-07-02 19:03:08,15.08836413,0.0001073,53.2175,334.4931,109.2553,250.8555,0.00011877,1.603e-05,0.0,0 STARLINK-4256,1 52994U 22076J   24184.79384766  .00001603  00000-0  11877-3 0  9992,2 52994  53.2175 334.4931 0001073 109.2553 250.8555 15.08836413110480,6917.891,95.438,540.499,539.014,0.0
52994.0,STARLINK-4256,PAYLOAD,2024-07-03 17:18:31,15.08845924,0.0001076,53.218,330.332,97.2617,262.8497,0.00014366,2e-05,0.0,0 STARLINK-4256,1 52994U 22076J   24185.72120288  .00002000  00000-0  14366-3 0  9991,2 52994  53.2180 330.3320 0001076  97.2617 262.8497 15.08845924110624,6917.862,95.437,540.472,538.983,0.0
52994.0,STARLINK-4256,PAYLOAD,2024-07-04 09:12:24,15.08825163,0.0001382,53.2197,327.3615,99.0534,261.0614,2.8855e-05,1.71e-06,0.0,0 STARLINK-4256,1 52994U 22076J   24186.38362128  .00000171  00000-0  28855-4 0  9991,2 52994  53.2197 327.3615 0001382  99.0534 261.0614 15.08825163110729,6917.926,95.438,540.747,538.835,0.0
